C/2020 R2 (PANSTARRS),e,53.2230,195.1118,211.8700,431.3893,0.0001100,0.98911112,0.0000,02/25.3735/2022,2000,g  9.0,4.0
# From MPEC 2022-K19
C/2020 R4 (ATLAS),e,164.4168,323.2464,46.5593,98.27107,0.0010117,0.98959961,0.0000,03/02.3846/2021,2000,g 13.5,4.0
# From MPEC 2023-C45
P/2020 R5 (PANSTARRS),e,11.4397,272.9411,82.7618,4.992074,0.0883655,0.31350420,146.0240,12/06.0/2024,2000,g  9.5,6.0
# From MPEC 2021-Y10
C/2020 R6 (Rankin),e,82.8590,12.2099,272.0031,294.3905,0.0001951,0.98933759,0.0000,09/07.1237/2019,2000,g 11.0,4.0
# From MPEC 2024-PC5
C/2020 R7 (ATLAS),e,114.9031,268.3084,347.7977,43922,0.0000001,0.99993275,0.0000,09/16.1386/2022,2000,g  7.0,3.2
# From MPEC 2021-BE3
P/2020 S1 (PANSTARRS),e,13.7175,129.5010,255.1245,6.000292,0.0670572,0.50722544,95.1266,12/06.0/2024,2000,g 14.0,4.0
# From MPEC 2022-ST7
C/2020 S2 (PANSTARRS),e,22.3891,197.7030,202.3971,10.24627,0.0300508,0.82810274,43.4149,12/06.0/2024,2000,g 17.0,4.0
# From MPEC 2024-JU4
C/2020 S3 (Erasmus),e,20.0377,222.5639,350.0472,142.8406,0.0005773,0.99724089,0.0000,12/11.4086/2020,2000,g 13.5,3.2
# From MPEC 2024-N80
C/2020 S4 (PANSTARRS),h,02/09.4146/2023,20.5686,117.6917,21.0301,1.002373,3.369816,2000,8.5,3.2
# From MPEC 2021-BE3
P/2020 S5 (PANSTARRS),e,12.3414,316.0332,53.2736,4.057384,0.1205965,0.33768470,190.5815,12/06.0/2024,2000,g 14.5,4.0
# From MPEC 2021-BE3
P/2020 S7 (PANSTARRS),e,16.0746,328.0887,40.6487,5.035558,0.0872233,0.40988623,128.9807,12/06.0/2024,2000,g 14.5,4.0
# From MPEC 2021-P47
C/2020 S8 (Lemmon),e,108.5340,24.0391,160.1611,243.7037,0.0002591,0.99033014,0.0000,04/10.5380/2021,2000,g 12.5,4.0
# From MPEC 2022-TD3
C/2020 T2 (Palomar),e,27.8379,83.0524,150.3783,276.3020,0.0002146,0.99256139,0.0000,07/10.5587/2021,2000,g 11.0,3.2
# From MPEC 2021-N06
P/2020 T3 (PANSTARRS),e,7.2993,73.9932,357.0660,3.516300,0.1494773,0.59247770,211.3804,12/06.0/2024,2000,g 18.0,3.2
# From MPEC 2021-N06
C/2020 T4 (PANSTARRS),h,07/05.8385/2021,83.8474,50.6174,79.5776,1.000546,2.188789,2000,13.0,3.2
# From MPEC 2021-BE3
C/2020 T5 (Lemmon),e,66.5448,237.8288,90.3797,636.9236,0.0000613,0.99702284,0.0000,10/08.2386/2020,2000,g 16.0,4.0
# From MPEC 2021-N06
P/2020 U2 (PANSTARRS),e,6.4195,342.8395,84.7327,3.777851,0.1342261,0.51142072,193.2731,12/06.0/2024,2000,g 18.0,4.0
# From MPEC 2021-W31
C/2020 U3 (Rankin),e,30.1405,282.6134,124.4624,67.52031,0.0017764,0.96619504,2.4848,12/06.0/2024,2000,g 15.0,4.0
# From MPEC 2024-TD8
C/2020 U4 (PANSTARRS),h,04/09.8095/2022,167.0059,120.3991,70.1508,1.000932,5.361065,2000,7.0,4.0
# From MPEC 2024-GJ3
C/2020 U5 (PANSTARRS),e,97.3042,107.3139,75.4589,5971,0.0000021,0.99937075,0.0000,04/28.1787/2022,2000,g  8.0,4.0
# From MPEC 2024-X74
C/2020 V2 (ZTF),h,05/08.4791/2023,131.6130,212.3811,162.4269,1.000899,2.228607,2000,4.9,4.0
# From MPEC 2023-D72
P/2020 V3 (PANSTARRS),e,23.0269,198.2633,249.6800,8.403000,0.0404625,0.25786548,56.2808,12/06.0/2024,2000,g  8.3,4.0
# From MPEC 2024-F34
P/2020 V4 (Rankin),e,14.2409,203.4872,257.1782,9.391002,0.0342481,0.45146185,42.2956,12/06.0/2024,2000,g  9.0,4.0
# From MPEC 2021-BE3
P/2020 W1 (Rankin),e,10.7787,124.3898,265.3401,7.224319,0.0507585,0.26585766,86.3039,12/06.0/2024,2000,g 10.0,4.0
# From MPEC 2021-BE3
C/2020 W5 (Lemmon),h,11/30.6911/2020,88.6196,75.4640,24.5717,1.001848,3.368913,2000,15.0,4.0
# From MPEC 2024-PC5
P/2020 WJ5 (Lemmon),e,22.2884,177.7807,338.0443,6.015040,0.0668107,0.17193078,83.8516,12/06.0/2024,2000,g  8.5,4.0
# From MPEC 2024-F34
P/2020 X1 (ATLAS),e,31.6955,55.9816,323.5221,4.534918,0.1020587,0.36477543,163.2407,12/06.0/2024,2000,g 13.0,4.0
# From MPEC 2024-A43
C/2020 X2 (ATLAS),e,18.1858,105.3655,347.5117,16.51994,0.0146788,0.76818851,21.7250,12/06.0/2024,2000,g 10.6,4.0
# From MPEC 2021-S45
C/2020 X4 (Leonard),e,80.6460,161.9346,140.3131,40.65256,0.0038025,0.87147199,5.6329,12/06.0/2024,2000,g  9.0,4.0
# From MPEC 2024-UQ8
C/2020 Y2 (ATLAS),e,101.1916,26.5340,266.4117,1413,0.0000186,0.99777327,0.0000,06/17.9792/2022,2000,g  6.5,4.0
# From MPEC 2021-R75
C/2020 Y3 (ATLAS),e,83.1239,191.3847,341.8607,138.0672,0.0006075,0.98557801,0.0000,12/03.2372/2020,2000,g 13.5,4.0
# From MPEC 2023-CD7
C/2021 A1 (Leonard),h,01/03.5687/2022,132.7616,255.9148,225.1495,1.000182,0.616016,2000,8.5,4.0
# From MPEC 2022-F14
C/2021 A2 (NEOWISE),e,107.0372,125.0923,338.7760,228.3408,0.0002856,0.99380670,0.0000,01/22.0273/2021,2000,g 13.5,4.0
# From MPEC 2022-ED3
C/2021 A4 (NEOWISE),e,111.6142,307.0945,204.7377,42.42526,0.0035667,0.97290365,0.0000,03/19.4887/2021,2000,g 16.0,4.0
# From MPEC 2021-BE3
P/2021 A5 (PANSTARRS),e,18.1875,328.8124,61.4770,3.046912,0.1853165,0.13989694,274.7495,12/06.0/2024,2000,g 15.0,4.0
# From MPEC 2024-P23
C/2021 A6 (PANSTARRS),e,75.5735,164.0422,351.6089,9620,0.0000010,0.99917629,0.0000,05/02.8617/2021,2000,g  7.0,4.0
# From MPEC 2022-M88
C/2021 A7 (NEOWISE),e,78.1950,154.4326,355.9850,1797,0.0000129,0.99890660,0.0000,07/15.1304/2021,2000,g 10.0,4.0
# From MPEC 2024-X74
C/2021 A9 (PANSTARRS),h,12/03.2372/2023,158.0155,314.8416,211.5676,1.000786,7.761595,2000,6.0,4.0
# From MPEC 2021-N06
C/2021 A10 (NEOWISE),e,151.9761,188.7967,82.5781,89.37896,0.0011664,0.98584492,0.0000,03/14.7909/2021,2000,g 19.0,4.0
# From MPEC 2022-L66
C/2021 B2 (PANSTARRS),e,38.0846,120.4601,335.0662,395.7962,0.0001252,0.99365102,0.0000,05/04.7750/2021,2000,g 14.0,4.0
# From MPEC 2021-N06
C/2021 B3 (NEOWISE),e,119.4732,67.2704,293.5650,34.22470,0.0049226,0.93672776,6.7310,12/06.0/2024,2000,g 13.5,4.0
# From MPEC 2023-KD6
C/2021 C1 (Rankin),e,143.0425,186.8543,336.0977,2275,0.0000091,0.99847353,0.0000,12/06.1845/2020,2000,g 11.5,4.0
# From MPEC 2021-U31
P/2021 C2 (PANSTARRS),e,21.9410,66.4561,78.6969,9.540936,0.0334440,0.48811496,46.1832,12/06.0/2024,2000,g 12.0,4.0
# From MPEC 2024-M41
C/2021 C3 (Catalina),e,122.1886,181.8818,356.9888,60.63374,0.0020875,0.96250944,2.9091,12/06.0/2024,2000,g 14.0,4.0
# From MPEC 2022-M88
C/2021 C4 (ATLAS),e,132.8394,194.2500,320.0695,5668,0.0000023,0.99920700,0.0000,01/16.5092/2021,2000,g  9.0,4.0
# From MPEC 2024-N80
C/2021 C5 (PANSTARRS),e,50.7982,323.6729,270.9044,1706,0.0000140,0.99810040,0.0000,02/10.9648/2023,2000,g  9.0,4.0
# From MPEC 2022-YB4
C/2021 C6 (Lemmon),e,164.6061,332.3379,203.8260,2714,0.0000070,0.99879114,0.0000,11/12.1205/2021,2000,g 12.0,4.0
# From MPEC 2022-F14
C/2021 D1 (SWAN),e,31.3754,311.1973,72.3966,101.9892,0.0009569,0.99111523,0.0000,02/27.6095/2021,2000,g 13.0,4.0
# From MPEC 2023-J29
C/2021 D2 (ZTF),h,02/03.8179/2022,83.7804,305.6422,125.0454,1.001496,2.947713,2000,9.0,4.0
# From MPEC 2022-UY9
A/2021 E2,e,167.4911,190.7794,342.2582,205.3583,0.0003349,0.98888597,0.0000,12/09.4868/2020,2000,g 15.0,2.0
# From MPEC 2024-GJ3
C/2021 E3 (ZTF),h,06/11.5248/2022,112.5255,104.4839,228.8168,1.000197,1.777210,2000,8.5,4.0
# From MPEC 2024-N80
A/2021 E4,e,116.3702,171.1534,48.2686,507.4976,0.0000862,0.99078186,0.0000,04/24.8544/2022,2000,g 13.5,22.0
# From MPEC 2022-QD9
C/2021 F1 (Lemmon-PANSTARRS),e,107.3068,203.5065,146.9180,246.0713,0.0002553,0.99594175,0.0000,04/06.7357/2022,2000,g 13.5,4.0
# From MPEC 2021-J72
C/2021 G1 (Leonard),e,131.5473,270.6980,107.4271,71.52553,0.0016293,0.95210278,2.0109,12/06.0/2024,2000,g 14.0,4.0
# From MPEC 2024-RQ6
C/2021 G2 (ATLAS),h,09/09.1684/2024,48.4721,221.0953,343.2726,1.000388,4.982370,2000,5.5,4.0
# From MPEC 2022-X67
C/2021 G3 (PANSTARRS),e,102.8701,147.3635,10.5810,8222,0.0000013,0.99936987,0.0000,10/17.8136/2021,2000,g 10.5,4.0
# From MPEC 2021-Y10
P/2021 HS (PANSTARRS),e,12.1545,262.3587,46.1363,4.193958,0.1147540,0.80941766,139.8433,12/06.0/2024,2000,g 22.0,4.0
# From MPEC 2022-C56
C/2021 J1 (Maury-Attard),e,92.7085,88.4294,147.2398,26.24955,0.0073286,0.93385171,10.1546,12/06.0/2024,2000,g 15.5,4.0
# From MPEC 2023-XP6
C/2021 J2 (PANSTARRS),e,156.2119,23.3214,171.9129,113.4196,0.0008160,0.95854934,0.9561,12/06.0/2024,2000,g 12.0,4.0
# From MPEC 2024-F34
P/2021 J3 (ATLAS),e,14.5192,111.0556,125.7239,8.900502,0.0371178,0.44910992,73.6798,12/06.0/2024,2000,g  7.0,4.0
# From MPEC 2022-O08
C/2021 K1 (ATLAS),e,16.2723,140.9202,184.2491,12.62428,0.0219732,0.80184690,28.8494,12/06.0/2024,2000,g 11.0,4.0
# From MPEC 2022-O01
C/2021 K2 (MASTER),h,09/09.4854/2021,100.8690,282.3315,343.3149,1.000727,5.466523,2000,8.0,4.0
# From MPEC 2022-L66
C/2021 K3 (Catalina),h,02/03.8594/2022,134.7800,114.5980,182.0414,1.004451,5.230003,2000,10.0,4.0
# From MPEC 2021-W31
P/2021 L2 (Leonard),e,21.0643,266.6527,51.4685,4.048078,0.1210127,0.52071468,149.0505,12/06.0/2024,2000,g 17.0,4.0
# From MPEC 2024-H50
C/2021 L3 (Borisov),h,02/14.9160/2022,78.5516,345.0076,91.6426,1.004688,8.459349,2000,6.0,4.0
# From MPEC 2022-TA0
P/2021 N1 (ZTF),e,11.4865,301.1398,21.2365,2.979221,0.1916682,0.67579541,245.2168,12/06.0/2024,2000,g 19.0,4.0
# From MPEC 2024-GJ3
P/2021 N2 (Fuls),e,13.0610,221.7347,177.6006,6.945513,0.0538453,0.45240348,60.1801,12/06.0/2024,2000,g  9.5,4.0
# From MPEC 2022-YB4
C/2021 N3 (PANSTARRS),e,26.7566,337.5137,304.6602,142.7055,0.0005782,0.95995162,0.9085,12/06.0/2024,2000,g  8.5,4.0
# From MPEC 2022-A21
C/2021 O1 (Nishimura),e,27.5862,41.5763,74.3943,3554,0.0000047,0.99977967,0.0000,08/14.5342/2021,2000,g 10.5,4.0
# From MPEC 2022-L66
C/2021 O3 (PANSTARRS),h,04/21.1934/2022,56.8113,188.8838,299.9763,1.000044,0.285435,2000,10.5,4.0
# From MPEC 2024-F34
C/2021 P1 (PANSTARRS),e,51.6286,359.6993,40.5181,2951,0.0000061,0.99851659,0.0000,06/02.6580/2022,2000,g 11.0,4.0
# From MPEC 2024-NE4
C/2021 P2 (PANSTARRS),e,150.0603,32.0880,76.7244,9678,0.0000010,0.99947624,0.0000,01/23.0918/2023,2000,g  9.0,4.0
# From MPEC 2024-GJ3
P/2021 P3 (PANSTARRS),e,27.1605,358.2475,334.0529,4.412420,0.1063381,0.33846659,136.8552,12/06.0/2024,2000,g 14.0,4.0
# From MPEC 2023-A50
C/2021 P4 (ATLAS),e,56.3483,348.0374,175.7959,294.5747,0.0001949,0.99633732,0.0000,07/30.3629/2022,2000,g  9.5,4.0
# From MPEC 2023-E68
P/2021 PE20 (ATLAS),e,19.9994,99.6236,210.4552,3.745969,0.1359433,0.66987186,173.8734,12/06.0/2024,2000,g 17.0,4.0
# From MPEC 2023-FK0
